NORAD_CAT_ID,OBJECT_NAME,OBJECT_TYPE,EPOCH,MEAN_MOTION,ECCENTRICITY,INCLINATION,RA_OF_ASC_NODE,ARG_OF_PERICENTER,MEAN_ANOMALY,BSTAR,MEAN_MOTION_DOT,MEAN_MOTION_DDOT,TLE_LINE0,TLE_LINE1,TLE_LINE2,SEMIMAJOR_AXIS,PERIOD,APOGEE,PERIGEE,DECAYED
53564.0,STARLINK-4577,PAYLOAD,2022-11-16 14:00:01,15.08849095,0.00016,53.2155,82.0694,72.4945,166.40200000000004,-0.0087767,-0.00137353,0.0,0 STARLINK-4577,1 53564U 22101AP  22320.58335648 -.00137353  00000-0 -87767-2 0  9991,2 53564  53.2155  82.0694 0001600  72.4945 166.4020 15.08849095  1305,6917.853,95.437,540.8240000000002,538.611,0.0
53564.0,STARLINK-4577,PAYLOAD,2022-11-16 20:00:01,15.08698786,0.0001513,53.216,80.9482,73.0913,84.4289,0.011473,0.00186457,0.0,0 STARLINK-4577,1 53564U 22101AP  22320.83334491  .00186457  00000-0  11473-1 0  9991,2 53564  53.2160  80.9482 0001513  73.0913  84.4289 15.08698786 13946,6918.312,95.446,541.224,539.13,0.0
53564.0,STARLINK-4577,PAYLOAD,2022-11-16 22:00:08,15.0873721,0.0001511,53.2163,80.5733,76.5966,174.2255,0.0094231,0.00152516,0.0,0 STARLINK-4577,1 53564U 22101AP  22320.91675926  .00152516  00000-0  94231-2 0  9994,2 53564  53.2163  80.5733 0001511  76.5966 174.2255 15.08737210  1302,6918.195,95.444,541.105,539.014,0.0
53564.0,STARLINK-4577,PAYLOAD,2022-11-17 14:00:01,15.08832288,0.0001751,53.2142,77.5797,66.435,207.1405,-0.00057188,-9.376e-05,0.0,0 STARLINK-4577,1 53564U 22101AP  22321.58334491 -.00009376  00000-0 -57188-3 0  9995,2 53564  53.2142  77.5797 0001751  66.4350 207.1405 15.08832288  1300,6917.904,95.438,540.98,538.558,0.0
53564.0,STARLINK-4577,PAYLOAD,2022-11-17 22:00:00,15.08859505,0.0001675999999999,53.2143,76.0831,63.6927,221.4587,-0.0039561,-0.00062735,0.0,0 STARLINK-4577,1 53564U 22101AP  22321.91667824 -.00062735  00000-0 -39561-2 0  9993,2 53564  53.2143  76.0831 0001676  63.6927 221.4587 15.08859505  1300,6917.821,95.436,540.845,538.526,0.0
53564.0,STARLINK-4577,PAYLOAD,2022-11-18 14:00:01,15.08830214,0.0001701,53.2148,73.0902,63.8367,244.4821,-0.00018561,-3.24e-05,0.0,0 STARLINK-4577,1 53564U 22101AP  22322.58334491 -.00003240  00000-0 -18561-3 0  9992,2 53564  53.2148  73.0902 0001701  63.8367 244.4821 15.08830214  1302,6917.91,95.438,540.952,538.599,0.0
53564.0,STARLINK-4577,PAYLOAD,2022-11-18 22:00:00,15.088553,0.0001631,53.2148,71.5935,61.5079,258.3899,-0.0013169,-0.00021194,0.0,0 STARLINK-4577,1 53564U 22101AP  22322.91667824 -.00021194  00000-0 -13169-2 0  9994,2 53564  53.2148  71.5935 0001631  61.5079 258.3899 15.08855300 14269,6917.834,95.437,540.827,538.57,0.0
53564.0,STARLINK-4577,PAYLOAD,2022-11-19 14:00:01,15.08835932,0.0001595,53.2153,68.6009,60.3015,282.8002,-1.7398e-05,-5.65e-06,0.0,0 STARLINK-4577,1 53564U 22101AP  22323.58334491 -.00000565  00000-0 -17398-4 0  9998,2 53564  53.2153  68.6009 0001595  60.3015 282.8002 15.08835932  1308,6917.893,95.438,540.861,538.654,0.0
53564.0,STARLINK-4577,PAYLOAD,2022-11-19 22:00:00,15.08851415,0.0001452,53.2151,67.1039,57.1935,297.4982,-0.0031738,-0.00050461,0.0,0 STARLINK-4577,1 53564U 22101AP  22323.91667824 -.00050461  00000-0 -31738-2 0  9996,2 53564  53.2151  67.1039 0001452  57.1935 297.4982 15.08851415 14419,6917.845,95.437,540.715,538.706,0.0
53564.0,STARLINK-4577,PAYLOAD,2022-11-20 14:00:01,15.08831671,0.000147,53.2155,64.1118,57.0676,320.7853,3.2869e-05,2.35e-06,0.0,0 STARLINK-4577,1 53564U 22101AP  22324.58334491  .00000235  00000-0  32869-4 0  9991,2 53564  53.2155  64.1118 0001470  57.0676 320.7853 15.08831671 14519,6917.906,95.438,540.788,538.754,0.0
53564.0,STARLINK-4577,PAYLOAD,2022-11-20 22:00:00,15.08867219,0.0001453,53.2153,62.6147,56.9559,332.4765,-0.0046393,-0.00073425,0.0,0 STARLINK-4577,1 53564U 22101AP  22324.91667824 -.00073425  00000-0 -46393-2 0  9995,2 53564  53.2153  62.6147 0001453  56.9559 332.4765 15.08867219  1303,6917.797,95.436,540.6669999999998,538.6569999999998,0.0
53564.0,STARLINK-4577,PAYLOAD,2022-11-21 14:00:01,15.08828938,0.0001574,53.2155,59.6229,59.2103,353.3989,0.00041904,6.385e-05,0.0,0 STARLINK-4577,1 53564U 22101AP  22325.58334491  .00006385  00000-0  41904-3 0  9993,2 53564  53.2155  59.6229 0001574  59.2103 353.3989 15.08828938  1302,6917.9140000000025,95.438,540.868,538.69,0.0
53564.0,STARLINK-4577,PAYLOAD,2022-11-21 22:00:00,15.08856022,0.0001504,53.2153,58.1257,59.1576,5.0336,-0.0013552999999999,-0.00021802,0.0,0 STARLINK-4577,1 53564U 22101AP  22325.91667824 -.00021802  00000-0 -13553-2 0  9990,2 53564  53.2153  58.1257 0001504  59.1576   5.0336 15.08856022 14712,6917.831,95.437,540.737,538.656,0.0
53564.0,STARLINK-4577,PAYLOAD,2022-11-22 00:00:00,15.08844946,0.0001438,53.2154,57.7512,61.74100000000001,95.3546,0.00018666,2.684e-05,0.0,0 STARLINK-4577,1 53564U 22101AP  22326.00001157  .00002684  00000-0  18666-3 0  9998,2 53564  53.2154  57.7512 0001438  61.7410  95.3546 15.08844946  1302,6917.865,95.437,540.725,538.735,0.0
53564.0,STARLINK-4577,PAYLOAD,2022-11-22 14:00:01,15.08826635,0.0001501,53.2153,55.1339,56.5335,30.941,0.0003938,5.983e-05,0.0,0 STARLINK-4577,1 53564U 22101AP  22326.58335648  .00005983  00000-0  39380-3 0  9997,2 53564  53.2153  55.1339 0001501  56.5335  30.9410 15.08826635  1309,6917.920999999999,95.438,540.825,538.748,0.0
53564.0,STARLINK-4577,PAYLOAD,2022-11-22 22:00:00,15.08863036,0.0001457,53.2152,53.6367,56.5233,42.4653,-0.0036627,-0.00058146,0.0,0 STARLINK-4577,1 53564U 22101AP  22326.91667824 -.00058146  00000-0 -36627-2 0  9999,2 53564  53.2152  53.6367 0001457  56.5233  42.4653 15.08863036 14867,6917.81,95.436,540.683,538.6669999999998,0.0
53564.0,STARLINK-4577,PAYLOAD,2022-11-23 14:00:01,15.08817524,0.0001634,53.2154,50.6451,56.3056,65.8585,0.0011647,0.00018285,0.0,0 STARLINK-4577,1 53564U 22101AP  22327.58334491  .00018285  00000-0  11647-2 0  9997,2 53564  53.2154  50.6451 0001634  56.3056  65.8585 15.08817524 14963,6917.949000000001,95.439,540.944,538.684,0.0
53564.0,STARLINK-4577,PAYLOAD,2022-11-24 00:00:00,15.08831078,0.0001517,53.2155,48.7732,58.6196,168.023,0.0009587,0.00014999,0.0,0 STARLINK-4577,1 53564U 22101AP  22328.00001157  .00014999  00000-0  95870-3 0  9994,2 53564  53.2155  48.7732 0001517  58.6196 168.0230 15.08831078  1301,6917.908,95.438,540.822,538.7230000000002,0.0
53564.0,STARLINK-4577,PAYLOAD,2022-11-24 14:00:01,15.08845024,0.0001695,53.2156,46.1561,53.8384,103.1013,0.00057466,8.871e-05,0.0,0 STARLINK-4577,1 53564U 22101AP  22328.58334491  .00008871  00000-0  57466-3 0  9998,2 53564  53.2156  46.1561 0001695  53.8384 103.1013 15.08845024  1302,6917.865,95.437,540.903,538.557,0.0
53564.0,STARLINK-4577,PAYLOAD,2022-11-24 22:00:00,15.08856334,0.0001534,53.2156,44.6584,53.7661,114.7816,-0.0023572,-0.00037624,0.0,0 STARLINK-4577,1 53564U 22101AP  22328.91667824 -.00037624  00000-0 -23572-2 0  9994,2 53564  53.2156  44.6584 0001534  53.7661 114.7816 15.08856334 15163,6917.83,95.437,540.757,538.634,0.0
53564.0,STARLINK-4577,PAYLOAD,2022-11-25 14:00:01,15.0884586,0.0001665,53.2159,41.6669,49.5535,142.1973,5.5464e-05,5.95e-06,0.0,0 STARLINK-4577,1 53564U 22101AP  22329.58334491  .00000595  00000-0  55464-4 0  9991,2 53564  53.2159  41.6669 0001665  49.5535 142.1973 15.08845860 15267,6917.861999999999,95.437,540.879,538.576,0.0
53564.0,STARLINK-4577,PAYLOAD,2022-11-26 00:00:00,15.08824021,0.0001449,53.216,39.7946,51.4051,244.864,0.0024441,0.00038807,0.0,0 STARLINK-4577,1 53564U 22101AP  22330.00001157  .00038807  00000-0  24441-2 0  9996,2 53564  53.2160  39.7946 0001449  51.4051 244.8640 15.08824021  1307,6917.929,95.439,540.797,538.7919999999998,0.0
53564.0,STARLINK-4577,PAYLOAD,2022-11-26 14:00:01,15.08851423,0.0001686999999999,53.216,37.1774,47.3085,179.2664,0.0010451,0.00016389,0.0,0 STARLINK-4577,1 53564U 22101AP  22330.58334491  .00016389  00000-0  10451-2 0  9996,2 53564  53.2160  37.1774 0001687  47.3085 179.2664 15.08851423  1306,6917.845,95.437,540.878,538.543,0.0
53564.0,STARLINK-4577,PAYLOAD,2022-11-26 22:00:00,15.08868766,0.000153,53.216,35.6794,50.5789,187.6147,-0.0044542,-0.00070538,0.0,0 STARLINK-4577,1 53564U 22101AP  22330.91667824 -.00070538  00000-0 -44542-2 0  9998,2 53564  53.2160  35.6794 0001530  50.5789 187.6147 15.08868766  1302,6917.792,95.436,540.716,538.599,0.0
53564.0,STARLINK-4577,PAYLOAD,2022-11-27 14:00:01,15.08813988,0.0001684,53.216,32.688,46.6468,214.7259,0.0020927,0.00033151,0.0,0 STARLINK-4577,1 53564U 22101AP  22331.58334491  .00033151  00000-0  20927-2 0  9992,2 53564  53.2160  32.6880 0001684  46.6468 214.7259 15.08813988  1307,6917.96,95.439,540.99,538.66,0.0
53564.0,STARLINK-4577,PAYLOAD,2022-11-28 00:00:00,15.08796241,0.0001535,53.2158,30.8156,54.2597,311.5976,0.0024746,0.00039268,0.0,0 STARLINK-4577,1 53564U 22101AP  22332.00001157  .00039268  00000-0  24746-2 0  9998,2 53564  53.2158  30.8156 0001535  54.2597 311.5976 15.08796241  1307,6918.014,95.44,540.941,538.817,0.0
53564.0,STARLINK-4577,PAYLOAD,2022-11-28 06:00:00,15.08832476,0.0001582,53.216,29.6937,55.9427,228.5763,-0.00030062,-5.068e-05,0.0,0 STARLINK-4577,1 53564U 22101AP  22332.25001157 -.00005068  00000-0 -30062-3 0  9997,2 53564  53.2160  29.6937 0001582  55.9427 228.5763 15.08832476 15672,6917.903,95.438,540.863,538.674,0.0
53564.0,STARLINK-4577,PAYLOAD,2022-11-28 22:00:01,15.08836906,0.0001605,53.2156,26.7006,53.5725,254.1864,0.00059949,9.265e-05,0.0,0 STARLINK-4577,1 53564U 22101AP  22332.91668981  .00009265  00000-0  59949-3 0  9990,2 53564  53.2156  26.7006 0001605  53.5725 254.1864 15.08836906  1307,6917.89,95.438,540.865,538.645,0.0
53564.0,STARLINK-4577,PAYLOAD,2022-11-29 06:00:00,15.08873016,0.0001656,53.2157,25.2044,56.8888,262.3968,-0.003778,-0.00059969,0.0,0 STARLINK-4577,1 53564U 22101AP  22333.25001157 -.00059969  00000-0 -37780-2 0  9990,2 53564  53.2157  25.2044 0001656  56.8888 262.3968 15.08873016 15827,6917.779,95.435,540.79,538.499,0.0
